[{"OBJECT_NAME":"IXPE","OBJECT_ID":"2021-121A","EPOCH":"2026-03-10T00:00:02.999808","MEAN_MOTION":15.09223379,"ECCENTRICITY":0.00072712,"INCLINATION":0.2307,"RA_OF_ASC_NODE":347.0223,"ARG_OF_PERICENTER":20.3591,"MEAN_ANOMALY":57.9535,"EPHEMERIS_TYPE":0,"CLASSIFICATION_TYPE":"U","NORAD_CAT_ID":49954,"ELEMENT_SET_NO":999,"REV_AT_EPOCH":584,"BSTAR":0.0008624183,"MEAN_MOTION_DOT":0.00015078,"MEAN_MOTION_DDOT":0},{"OBJECT_NAME":"STARLINK-3895","OBJECT_ID":"2022-051AZ","EPOCH":"2026-03-09T12:54:47.429280","MEAN_MOTION":15.08840669,"ECCENTRICITY":0.00013931,"INCLINATION":53.2175,"RA_OF_ASC_NODE":119.8017,"ARG_OF_PERICENTER":90.7443,"MEAN_ANOMALY":269.3709,"EPHEMERIS_TYPE":0,"CLASSIFICATION_TYPE":"U","NORAD_CAT_ID":52583,"ELEMENT_SET_NO":999,"REV_AT_EPOCH":21156,"BSTAR":-8.105283e-6,"MEAN_MOTION_DOT":-4.17e-6,"MEAN_MOTION_DDOT":0}]
